NORAD_CAT_ID,OBJECT_NAME,OBJECT_TYPE,EPOCH,MEAN_MOTION,ECCENTRICITY,INCLINATION,RA_OF_ASC_NODE,ARG_OF_PERICENTER,MEAN_ANOMALY,BSTAR,MEAN_MOTION_DOT,MEAN_MOTION_DDOT,TLE_LINE0,TLE_LINE1,TLE_LINE2,SEMIMAJOR_AXIS,PERIOD,APOGEE,PERIGEE,DECAYED
53152.0,STARLINK-4045,PAYLOAD,2022-07-21 18:00:00,15.89020469,0.0036704999999999,53.2174,26.5925,52.654,46.3453,-0.0041597,-0.01286801,0.00047024,0 STARLINK-4045,1 53152U 22083W   22202.75001157 -.01286801  47024-3 -41597-2 0  9991,2 53152  53.2174  26.5925 0036705  52.6540  46.3453 15.89020469  1305,6683.165,90.622,329.561,280.499,0.0
53152.0,STARLINK-4045,PAYLOAD,2022-07-22 04:00:00,15.87965943,0.0031734,53.2175,24.4832,52.2907,270.8314,-0.0047611999999999,-0.01373809,0.00052464,0 STARLINK-4045,1 53152U 22083W   22203.16667824 -.01373809  52464-3 -47612-2 0  9999,2 53152  53.2175  24.4832 0031734  52.2907 270.8314 15.87965943  1369,6686.123000000001,90.682,329.206,286.771,0.0
53152.0,STARLINK-4045,PAYLOAD,2022-07-22 06:00:00,15.87714828,0.0030964,53.2177,24.0612,51.9275,27.8358,-0.0046013,-0.01308912,0.00047923,0 STARLINK-4045,1 53152U 22083W   22203.25001157 -.01308912  47923-3 -46013-2 0  9991,2 53152  53.2177  24.0612 0030964  51.9275  27.8358 15.87714828  1307,6686.828,90.696,329.398,287.988,0.0
53152.0,STARLINK-4045,PAYLOAD,2022-07-22 12:00:00,15.87056197,0.0028259,53.2177,22.7973,51.2778,17.9786,-0.0047903,-0.01309354,0.00047665,0 STARLINK-4045,1 53152U 22083W   22203.50001157 -.01309354  47665-3 -47903-2 0  9992,2 53152  53.2177  22.7973 0028259  51.2778  17.9786 15.87056197  1412,6688.678000000001,90.734,329.445,291.642,0.0
53152.0,STARLINK-4045,PAYLOAD,2022-07-22 20:00:01,15.86200861,0.0024843,53.2175,21.117,50.1086,124.2052,-0.005227,-0.01358416,0.00050576,0 STARLINK-4045,1 53152U 22083W   22203.83334491 -.01358416  50576-3 -52270-2 0  9999,2 53152  53.2175  21.1170 0024843  50.1086 124.2052 15.86200861  1479,6691.083000000001,90.783,329.57,296.325,0.0
53152.0,STARLINK-4045,PAYLOAD,2022-07-22 22:00:00,15.85994551,0.0023409,53.2175,20.697,50.3322,240.0788,-0.0054103,-0.01387526,0.00052473,0 STARLINK-4045,1 53152U 22083W   22203.91667824 -.01387526  52473-3 -54103-2 0  9996,2 53152  53.2175  20.6970 0023409  50.3322 240.0788 15.85994551  1303,6691.663000000001,90.795,329.19199999999995,297.863,0.0
53152.0,STARLINK-4045,PAYLOAD,2022-07-23 04:00:00,15.85340047,0.0020296,53.2174,19.4353,51.2178,227.1018,-0.005657,-0.01229964,0.0,0 STARLINK-4045,1 53152U 22083W   22204.16667824 -.01229964  00000-0 -56570-2 0  9991,2 53152  53.2174  19.4353 0020296  51.2178 227.1018 15.85340047  1524,6693.504,90.832,328.955,301.784,0.0
53152.0,STARLINK-4045,PAYLOAD,2022-07-23 14:00:01,15.84211492,0.0016485,53.2177,17.3374,49.1927,87.7317,-0.0057306999999999,-0.011772,0.0,0 STARLINK-4045,1 53152U 22083W   22204.58335648 -.01177200  00000-0 -57307-2 0  9997,2 53152  53.2177  17.3374 0016485  49.1927  87.7317 15.84211492  1308,6696.683000000001,90.897,329.587,307.508,0.0
53152.0,STARLINK-4045,PAYLOAD,2022-07-23 22:00:00,15.83357011,0.0013040999999999,53.2176,15.6637,48.6825,189.8012,-0.0062258,-0.01238204,0.0,0 STARLINK-4045,1 53152U 22083W   22204.91667824 -.01238204  00000-0 -62258-2 0  9991,2 53152  53.2176  15.6637 0013041  48.6825 189.8012 15.83357011  1309,6699.092,90.946,329.6930000000001,312.221,0.0
53152.0,STARLINK-4045,PAYLOAD,2022-07-24 14:00:01,15.81570784,0.0007332,53.2175,12.3176,33.8926,44.7028,-0.0065031,-0.0118619,0.0,0 STARLINK-4045,1 53152U 22083W   22205.58334491 -.01186190  00000-0 -65031-2 0  9994,2 53152  53.2175  12.3176 0007332  33.8926  44.7028 15.81570784  1302,6704.135,91.049,330.915,321.085,0.0
53152.0,STARLINK-4045,PAYLOAD,2022-07-24 22:00:00,15.80703188,0.0004812,53.2173,10.6501,22.222,154.8348,-0.0068963,-0.01203191,0.0,0 STARLINK-4045,1 53152U 22083W   22205.91667824 -.01203191  00000-0 -68963-2 0  9998,2 53152  53.2173  10.6501 0004812  22.2220 154.8348 15.80703188  1305,6706.5880000000025,91.099,331.68,325.226,0.0
53152.0,STARLINK-4045,PAYLOAD,2022-07-25 14:00:01,15.78951684,0.0003849,53.2178,7.317,359.8084,11.012,-0.0075469,-0.0121243,0.0,0 STARLINK-4045,1 53152U 22083W   22206.58334491 -.01212430  00000-0 -75469-2 0  9998,2 53152  53.2178   7.3170 0003849 359.8084  11.0120 15.78951684  1902,6711.547,91.2,335.995,330.8280000000001,0.0
53152.0,STARLINK-4045,PAYLOAD,2022-07-25 22:00:00,15.78067506,0.0003662,53.2174,5.6558,3.8681,102.2514,-0.0077861,-0.01202563,0.0,0 STARLINK-4045,1 53152U 22083W   22206.91667824 -.01202563  00000-0 -77861-2 0  9998,2 53152  53.2174   5.6558 0003662   3.8681 102.2514 15.78067506  1306,6714.053000000001,91.251,338.3769999999999,333.46,0.0
53152.0,STARLINK-4045,PAYLOAD,2022-07-26 04:00:01,15.77411576,0.0003903,53.2175,4.4086,356.9346,90.0315,-0.008064,-0.01208522,0.0,0 STARLINK-4045,1 53152U 22083W   22207.16668981 -.01208522  00000-0 -80640-2 0  9991,2 53152  53.2175   4.4086 0003903 356.9346  90.0315 15.77411576  1995,6715.915,91.289,340.401,335.158,0.0
53152.0,STARLINK-4045,PAYLOAD,2022-07-26 14:00:01,15.76306772,0.0004326,53.2174,2.336,338.8899,314.6593,-0.0083817,-0.01197192,0.0,0 STARLINK-4045,1 53152U 22083W   22207.58334491 -.01197192  00000-0 -83817-2 0  9992,2 53152  53.2174   2.3360 0004326 338.8899 314.6593 15.76306772  1306,6719.052,91.353,343.824,338.011,0.0
53152.0,STARLINK-4045,PAYLOAD,2022-07-26 20:00:01,15.75643666,2.04e-05,53.2174,1.0951,297.3407,335.4067,-0.0085899,-0.01189638,0.0,0 STARLINK-4045,1 53152U 22083W   22207.83334491 -.01189638  00000-0 -85899-2 0  9998,2 53152  53.2174   1.0951 0000204 297.3407 335.4067 15.75643666  2104,6720.937,91.391,342.939,342.665,0.0
53152.0,STARLINK-4045,PAYLOAD,2022-07-26 22:00:00,15.75433833,1.26e-05,53.2171,0.6812,61.3184,324.3583,-0.0087821,-0.01203225,0.0,0 STARLINK-4045,1 53152U 22083W   22207.91667824 -.01203225  00000-0 -87821-2 0  9992,2 53152  53.2171   0.6812 0000126  61.3184 324.3583 15.75433833  1300,6721.534000000002,91.403,343.4840000000001,343.314,0.0
53152.0,STARLINK-4045,PAYLOAD,2022-07-27 14:00:01,15.73552425,0.0001618,53.2177,357.3744,49.2728,157.5089,-0.0034323,-0.00463713,0.0,0 STARLINK-4045,1 53152U 22083W   22208.58334491 -.00463713  00000-0 -34323-2 0  9995,2 53152  53.2177 357.3744 0001618  49.2728 157.5089 15.73552425  2224,6726.891,91.513,349.844,347.667,0.0
53152.0,STARLINK-4045,PAYLOAD,2022-07-27 22:00:00,15.73203742,0.0001137999999999,53.2172,355.7253,65.343,230.5837,1.8463e-05,1.972e-05,0.0,0 STARLINK-4045,1 53152U 22083W   22208.91667824  .00001972  00000-0  18463-4 0  9993,2 53152  53.2172 355.7253 0001138  65.3430 230.5837 15.73203742  2275,6727.885,91.533,350.515,348.9840000000001,0.0
53152.0,STARLINK-4045,PAYLOAD,2022-07-28 06:00:00,15.732346599999998,0.0001369,53.218,354.0757,55.8558,329.0315,0.00018617,0.00025626,0.0,0 STARLINK-4045,1 53152U 22083W   22209.25001157  .00025626  00000-0  18617-3 0  9994,2 53152  53.2180 354.0757 0001369  55.8558 329.0315 15.73234660  2320,6727.795999999999,91.531,350.582,348.74,0.0
53152.0,STARLINK-4045,PAYLOAD,2022-07-28 14:00:01,15.73262856,0.0001496,53.2182,352.4274,54.0133,59.8562,-0.00075025,-0.00104893,0.0,0 STARLINK-4045,1 53152U 22083W   22209.58334491 -.00104893  00000-0 -75025-3 0  9992,2 53152  53.2182 352.4274 0001496  54.0133  59.8562 15.73262856  1306,6727.715999999999,91.53,350.587,348.575,0.0
53152.0,STARLINK-4045,PAYLOAD,2022-07-28 22:00:00,15.7316153,0.000153,53.2176,350.7784,45.0091,157.8265,0.00034491,0.00047983,0.0,0 STARLINK-4045,1 53152U 22083W   22209.91667824  .00047983  00000-0  34491-3 0  9994,2 53152  53.2176 350.7784 0001530  45.0091 157.8265 15.73161530  1304,6728.005,91.535,350.899,348.84,0.0
53152.0,STARLINK-4045,PAYLOAD,2022-07-29 14:00:01,15.73254072,0.0001476999999999,53.2188,347.4792,43.8068,336.8447,-0.00051359,-0.0007224999999999,0.0,0 STARLINK-4045,1 53152U 22083W   22210.58334491 -.00072250  00000-0 -51359-3 0  9999,2 53152  53.2188 347.4792 0001477  43.8068 336.8447 15.73254072  2530,6727.741,91.53,350.6,348.612,0.0
53152.0,STARLINK-4045,PAYLOAD,2022-07-29 22:00:00,15.73180967,0.000148,53.2185,345.8303,34.8261,74.7735,9.5653e-05,0.00012814,0.0,0 STARLINK-4045,1 53152U 22083W   22210.91667824  .00012814  00000-0  95653-4 0  9999,2 53152  53.2185 345.8303 0001480  34.8261  74.7735 15.73180967  1309,6727.949000000001,91.534,350.81,348.819,0.0
53152.0,STARLINK-4045,PAYLOAD,2022-07-30 12:00:00,15.73203531,0.0001735,53.2175,342.94,50.0083,125.1602,1.1583e-05,1.005e-05,0.0,0 STARLINK-4045,1 53152U 22083W   22211.50001157  .00001005  00000-0  11583-4 0  9996,2 53152  53.2175 342.9400 0001735  50.0083 125.1602 15.73203531  2688,6727.885,91.533,350.917,348.583,0.0
53152.0,STARLINK-4045,PAYLOAD,2022-07-30 14:00:01,15.73202862,0.0001783,53.2173,342.5283,48.3977,239.0041,2.0768e-05,2.295e-05,0.0,0 STARLINK-4045,1 53152U 22083W   22211.58334491  .00002295  00000-0  20768-4 0  9991,2 53152  53.2173 342.5283 0001783  48.3977 239.0041 15.73202862  1302,6727.887,91.533,350.952,348.552,0.0
53152.0,STARLINK-4045,PAYLOAD,2022-07-30 20:00:01,15.73230494,0.0001733,53.2187,341.295,43.1885,221.0204,-0.00010253,-0.00015004,0.0,0 STARLINK-4045,1 53152U 22083W   22211.83334491 -.00015004  00000-0 -10253-3 0  9990,2 53152  53.2187 341.2950 0001733  43.1885 221.0204 15.73230494  2732,6727.808000000001,91.531,350.839,348.50699999999995,0.0
53152.0,STARLINK-4045,PAYLOAD,2022-07-30 22:00:00,15.73254058,0.0001719,53.2185,340.8822,42.0058,334.4369,-0.00054003,-0.00075908,0.0,0 STARLINK-4045,1 53152U 22083W   22211.91667824 -.00075908  00000-0 -54003-3 0  9998,2 53152  53.2185 340.8822 0001719  42.0058 334.4369 15.73254058  1302,6727.741,91.53,350.76300000000015,348.45,0.0
53152.0,STARLINK-4045,PAYLOAD,2022-07-31 14:00:01,15.73238732,0.0001636999999999,53.2191,337.583,39.9051,154.4149,-0.00062533,-0.00087621,0.0,0 STARLINK-4045,1 53152U 22083W   22212.58334491 -.00087621  00000-0 -62533-3 0  9995,2 53152  53.2191 337.5830 0001637  39.9051 154.4149 15.73238732  1305,6727.785,91.531,350.751,348.548,0.0
